STARLINK-30839
1 58209U 23170D   26061.16668981  .01442654  00000+0  50796-1 0  9990
2 58209  42.9997 236.0212 0000843 306.8476 171.8497 15.25732021  5764
STARLINK-31023
1 58522U 23191Q   26061.16668981  .01353084  00000+0  47252-1 0  9992
2 58522  43.0010 145.6719 0001469 236.5584 123.0461 15.25701453  5766
